MINXSS-2                
1 43758U 18099A   26191.17345577  .00030749  00000+0  57667-3 0  9998
2 43758  97.4528 268.1562 0008280 176.0626 184.0691 15.48559417417684
SIRION PATHFINDER-2     
1 43759U 18099B   26190.44534952  .00002996  00000+0  16503-3 0  9992
2 43759  97.4244 238.9746 0007887 212.4979 147.5769 15.14748987415994
AISTECHSAT 2            
1 43768U 18099L   26190.40518050  .00004147  00000+0  22132-3 0  9994
2 43768  97.4285 237.9540 0004036 200.8293 159.2775 15.15677823415643
FOX-1CLIFF (AO-95)      
1 43770U 18099N   26191.14495820  .00007917  00000+0  29949-3 0  9999
2 43770  97.4377 251.3120 0006982 261.2710  98.7738 15.27204994416723
RANGE-A                 
1 43773U 18099R   26190.65704564  .00003299  00000+0  18730-3 0  9990
2 43773  97.3959 232.5795 0008493 267.8830  92.1429 15.13579951415899
SNUSAT-2                
1 43782U 18099AA  26190.94949410  .00005973  00000+0  26289-3 0  9992
2 43782  97.4052 243.9863 0009657 206.5950 153.4792 15.22189397416494
SNUGLITE                
1 43784U 18099AC  26191.13830510  .00008129  00000+0  30311-3 0  9993
2 43784  97.3861 245.1973 0003107 173.2092 186.9190 15.27686786416829
ITASAT                  
1 43786U 18099AE  26191.14073297  .00004555  00000+0  21845-3 0  9998
2 43786  97.4020 242.1964 0010730 270.9097  89.0908 15.19343715416391
EAGLET-I                
1 43790U 18099AJ  26191.53064057  .00002409  00000+0  13957-3 0  9991
2 43790  97.4225 240.5813 0009398 262.9103  97.1060 15.13114048415864
ESEO                    
1 43792U 18099AL  26191.52842965  .00001189  00000+0  89445-4 0  9994
2 43792  97.3952 227.9164 0010706 251.7848 108.2214 15.04309733415319
THEA                    
1 43796U 18099AQ  26191.14252525  .00014138  00000+0  40740-3 0  9995
2 43796  97.4435 261.0687 0007540 191.2682 168.8394 15.35819372416215
JY1SAT (JO-97)          
1 43803U 18099AX  26191.12210713  .00013549  00000+0  40848-3 0  9999
2 43803  97.4121 254.0449 0006406 173.8802 186.2520 15.34409607417147
SUOMI-100               
1 43804U 18099AY  26191.11660909  .00009577  00000+0  34267-3 0  9999
2 43804  97.4180 251.4306 0010031 189.6683 170.4366 15.28953452416920
GLOBAL-2                
1 43812U 18099BG  26191.08876811  .00001788  00000+0  11744-3 0  9996
2 43812  97.3551 226.6497 0007678  81.0751 279.1347 15.08809515415360
SEAHAWK-1               
1 43820U 18099BQ  26189.68683012  .00006404  00000+0  27376-3 0  9995
2 43820  97.3949 241.8476 0007304 223.0542 137.0124 15.23168577415805
ISAT                    
1 43879U 18111D   26190.25149462  .00104241  00000+0  86630-3 0  9991
2 43879  97.5854 127.2412 0006519 149.6441 210.5199 15.69812662414620
UWE-4                   
1 43880U 18111E   26190.27481266  .00027640  00000+0  53768-3 0  9999
2 43880  97.5841 119.7053 0005270 218.3666 141.7210 15.47549208414191
D-STAR ONE (SPARROW)    
1 43881U 18111F   26190.51301030  .00199926  00000+0  93113-3 0  9992
2 43881  97.6090 133.6066 0006852 142.7997 217.3747 15.82781928414890
JILIN-1 GAOFEN 3A       
1 44312U 19032C   26191.54551010  .00006454  00000+0  20715-3 0  9995
2 44312  44.9739 228.3329 0004685  70.2294 289.9096 15.33133405391428
